NORAD_CAT_ID,OBJECT_NAME,OBJECT_TYPE,EPOCH,MEAN_MOTION,ECCENTRICITY,INCLINATION,RA_OF_ASC_NODE,ARG_OF_PERICENTER,MEAN_ANOMALY,BSTAR,MEAN_MOTION_DOT,MEAN_MOTION_DDOT,TLE_LINE0,TLE_LINE1,TLE_LINE2,SEMIMAJOR_AXIS,PERIOD,APOGEE,PERIGEE,DECAYED
54194.0,STARLINK-5271,PAYLOAD,2023-09-21 12:31:20,15.08839125,0.0001013,53.2168,75.0925,98.4354,261.6753,0.00018181,2.607e-05,0.0,0 STARLINK-5271,1 54194U 22141AP  23264.52176839  .00002607  00000-0  18181-3 0  9998,2 54194  53.2168  75.0925 0001013  98.4354 261.6753 15.08839125 50104,6917.883,95.438,540.449,539.047,0.0
54194.0,STARLINK-5271,PAYLOAD,2023-09-21 18:52:53,15.08846808,0.000102,53.217,73.9033,94.9381,265.1728,0.00037844,5.741e-05,0.0,0 STARLINK-5271,1 54194U 22141AP  23264.78672664  .00005741  00000-0  37844-3 0  9992,2 54194  53.2170  73.9033 0001020  94.9381 265.1728 15.08846808 50379,6917.86,95.437,540.43,539.019,0.0
54194.0,STARLINK-5271,PAYLOAD,2023-09-22 10:46:44,15.08843864,0.0001041,53.217,70.9303,93.1447,266.9664,0.000273,4.06e-05,0.0,0 STARLINK-5271,1 54194U 22141AP  23265.44912781  .00004060  00000-0  27300-3 0  9992,2 54194  53.2170  70.9303 0001041  93.1447 266.9664 15.08843864 50471,6917.869,95.437,540.454,539.013,0.0
54194.0,STARLINK-5271,PAYLOAD,2023-09-22 12:22:07,15.08840734,0.0001058,53.2173,70.6323,93.1328,266.9785,0.00020753,3.017e-05,0.0,0 STARLINK-5271,1 54194U 22141AP  23265.51536921  .00003017  00000-0  20753-3 0  9994,2 54194  53.2173  70.6323 0001058  93.1328 266.9785 15.08840734 50252,6917.878,95.438,540.475,539.011,0.0
54194.0,STARLINK-5271,PAYLOAD,2023-09-22 18:43:40,15.08844818,9.53e-05,53.2171,69.4427,92.8354,267.2747,0.00024519,3.617e-05,0.0,0 STARLINK-5271,1 54194U 22141AP  23265.78032726  .00003617  00000-0  24519-3 0  9997,2 54194  53.2171  69.4427 0000953  92.8354 267.2747 15.08844818 50292,6917.866,95.437,540.39,539.071,0.0
54194.0,STARLINK-5271,PAYLOAD,2023-09-23 04:15:59,15.08844588,8.87e-05,53.2167,67.6586,90.725,269.3844,0.00018239,2.617e-05,0.0,0 STARLINK-5271,1 54194U 22141AP  23266.17776705  .00002617  00000-0  18239-3 0  9994,2 54194  53.2167  67.6586 0000887  90.7250 269.3844 15.08844588 50353,6917.866,95.437,540.345,539.118,0.0
54194.0,STARLINK-5271,PAYLOAD,2023-09-23 16:59:04,15.0883374,3.26e-05,53.2167,65.2802,80.8689,279.234,-5.6552e-05,-1.187e-05,0.0,0 STARLINK-5271,1 54194U 22141AP  23266.70768988 -.00001187  00000-0 -56552-4 0  9991,2 54194  53.2167  65.2802 0000326  80.8689 279.2340 15.08833740 50665,6917.9,95.438,539.99,539.539,0.0
54194.0,STARLINK-5271,PAYLOAD,2023-09-24 10:28:18,15.08843914,8.93e-05,53.2172,62.0087,97.3447,262.7646,0.0002302,3.378e-05,0.0,0 STARLINK-5271,1 54194U 22141AP  23267.43632811  .00003378  00000-0  23020-3 0  9992,2 54194  53.2172  62.0087 0000893  97.3447 262.7646 15.08843914 50777,6917.868,95.437,540.351,539.116,0.0
54194.0,STARLINK-5271,PAYLOAD,2023-09-24 13:39:05,15.08841898,8.01e-05,53.2171,61.4148,78.3458,281.7623,0.00018628,2.678e-05,0.0,0 STARLINK-5271,1 54194U 22141AP  23267.56880909  .00002678  00000-0  18628-3 0  9999,2 54194  53.2171  61.4148 0000801  78.3458 281.7623 15.08841898 50569,6917.875,95.437,540.294,539.185,0.0
54194.0,STARLINK-5271,PAYLOAD,2023-09-24 16:49:51,15.0884742,9.16e-05,53.2172,60.8198,79.5424,280.5672,0.00025397,3.757e-05,0.0,0 STARLINK-5271,1 54194U 22141AP  23267.70128753  .00003757  00000-0  25397-3 0  9997,2 54194  53.2172  60.8198 0000916  79.5424 280.5672 15.08847420 50581,6917.858,95.437,540.356,539.089,0.0
54194.0,STARLINK-5271,PAYLOAD,2023-09-25 10:19:06,15.08839685,8.65e-05,53.2171,57.5481,83.4194,276.6896,0.00025933,3.842e-05,0.0,0 STARLINK-5271,1 54194U 22141AP  23268.42993549  .00003842  00000-0  25933-3 0  9991,2 54194  53.2171  57.5481 0000865  83.4194 276.6896 15.08839685 50925,6917.881,95.438,540.345,539.148,0.0
54194.0,STARLINK-5271,PAYLOAD,2023-09-25 13:29:52,15.08846765,0.0001148,53.2173,56.9532,91.2362,268.8762,0.00039634,6.027e-05,0.0,0 STARLINK-5271,1 54194U 22141AP  23268.56241403  .00006027  00000-0  39634-3 0  9992,2 54194  53.2173  56.9532 0001148  91.2362 268.8762 15.08846765 50715,6917.86,95.437,540.519,538.931,0.0
54194.0,STARLINK-5271,PAYLOAD,2023-09-25 16:40:38,15.08848434,0.0001235,53.2169,56.3598,88.7121,271.4013,0.00062912,9.741e-05,0.0,0 STARLINK-5271,1 54194U 22141AP  23268.69489446  .00009741  00000-0  62912-3 0  9998,2 54194  53.2169  56.3598 0001235  88.7121 271.4013 15.08848434 50733,6917.855,95.437,540.574,538.865,0.0
54194.0,STARLINK-5271,PAYLOAD,2023-09-26 14:56:03,15.08840122,0.0001275,53.2171,52.1957,97.9515,262.1622,0.00036976,5.602e-05,0.0,0 STARLINK-5271,1 54194U 22141AP  23269.62225730  .00005602  00000-0  36976-3 0  9999,2 54194  53.2171  52.1957 0001275  97.9515 262.1622 15.08840122 50876,6917.88,95.438,540.627,538.863,0.0
54194.0,STARLINK-5271,PAYLOAD,2023-09-26 16:31:26,15.08838893,0.0001319,53.217,51.8969,78.7113,281.4028,0.00039257,5.965e-05,0.0,0 STARLINK-5271,1 54194U 22141AP  23269.68849873  .00005965  00000-0  39257-3 0  9992,2 54194  53.2170  51.8969 0001319  78.7113 281.4028 15.08838893 51118,6917.884,95.438,540.661,538.836,0.0
54194.0,STARLINK-5271,PAYLOAD,2023-09-26 19:42:12,15.08841106,0.0001305,53.217,51.3016,77.9826,282.1312,0.00046521,7.124e-05,0.0,0 STARLINK-5271,1 54194U 22141AP  23269.82097867  .00007124  00000-0  46521-3 0  9997,2 54194  53.2170  51.3016 0001305  77.9826 282.1312 15.08841106 50904,6917.877,95.437,540.645,538.839,0.0
54194.0,STARLINK-5271,PAYLOAD,2023-09-27 13:11:27,15.0883696,0.0001737,53.2171,48.0314,104.6023,255.5162,0.00021252,3.096e-05,0.0,0 STARLINK-5271,1 54194U 22141AP  23270.54961901  .00003096  00000-0  21252-3 0  9995,2 54194  53.2171  48.0314 0001737 104.6023 255.5162 15.08836960 51017,6917.89,95.438,540.956,538.553,0.0
54194.0,STARLINK-5271,PAYLOAD,2023-09-27 16:22:13,15.0884281,0.0001545,53.2176,47.4397,101.4809,258.6357,0.00023046,3.382e-05,0.0,0 STARLINK-5271,1 54194U 22141AP  23270.68209763  .00003382  00000-0  23046-3 0  9992,2 54194  53.2176  47.4397 0001545 101.4809 258.6357 15.08842810 51268,6917.872,95.437,540.806,538.668,0.0
54194.0,STARLINK-5271,PAYLOAD,2023-09-28 14:37:37,15.08845138,0.000153,53.218,43.2766,103.5046,256.6116,0.00020176,2.925e-05,0.0,0 STARLINK-5271,1 54194U 22141AP  23271.60945837  .00002925  00000-0  20176-3 0  9997,2 54194  53.2180  43.2766 0001530 103.5046 256.6116 15.08845138 51174,6917.865,95.437,540.788,538.671,0.0
54194.0,STARLINK-5271,PAYLOAD,2023-09-28 17:48:23,15.08849849,0.0001519,53.2182,42.6818,102.1951,257.9211,0.00032027,4.814e-05,0.0,0 STARLINK-5271,1 54194U 22141AP  23271.74193689  .00004814  00000-0  32027-3 0  9999,2 54194  53.2182  42.6818 0001519 102.1951 257.9211 15.08849849 51425,6917.85,95.437,540.766,538.664,0.0
54194.0,STARLINK-5271,PAYLOAD,2023-09-29 08:06:51,15.08842163,0.0001699,53.219,40.0047,98.6681,261.4504,5.3449e-05,5.63e-06,0.0,0 STARLINK-5271,1 54194U 22141AP  23272.33809795  .00000563  00000-0  53449-4 0  9996,2 54194  53.2190  40.0047 0001699  98.6681 261.4504 15.08842163 51515,6917.874,95.437,540.914,538.563,0.0
54194.0,STARLINK-5271,PAYLOAD,2023-09-29 14:28:24,15.08844698,0.0001631,53.2189,38.8166,96.1951,263.9228,0.00010889,1.446e-05,0.0,0 STARLINK-5271,1 54194U 22141AP  23272.60305752  .00001446  00000-0  10889-3 0  9991,2 54194  53.2189  38.8166 0001631  96.1951 263.9228 15.08844698 51323,6917.866,95.437,540.859,538.603,0.0
54194.0,STARLINK-5271,PAYLOAD,2023-09-30 01:36:05,15.08854882,0.0001541,53.2179,36.7335,76.9028,283.2136,0.00030737,4.609e-05,0.0,0 STARLINK-5271,1 54194U 22141AP  23273.06673279  .00004609  00000-0  30737-3 0  9992,2 54194  53.2179  36.7335 0001541  76.9028 283.2136 15.08854882 51620,6917.835,95.437,540.766,538.634,0.0
54194.0,STARLINK-5271,PAYLOAD,2023-09-30 15:54:33,15.08853967,0.0001471,53.2181,34.0547,86.2986,273.8175,0.0002566,3.8e-05,0.0,0 STARLINK-5271,1 54194U 22141AP  23273.66289096  .00003800  00000-0  25660-3 0  9999,2 54194  53.2181  34.0547 0001471  86.2986 273.8175 15.08853967 51719,6917.838,95.437,540.72,538.685,0.0
54194.0,STARLINK-5271,PAYLOAD,2023-10-01 01:26:52,15.08850803,0.0001507,53.2175,32.2736,82.8255,277.2908,0.0002186,3.194e-05,0.0,0 STARLINK-5271,1 54194U 22141AP  23274.06033143  .00003194  00000-0  21860-3 0  9998,2 54194  53.2175  32.2736 0001507  82.8255 277.2908 15.08850803 51777,6917.847,95.437,540.755,538.67,0.0
54194.0,STARLINK-5271,PAYLOAD,2023-10-01 14:09:57,15.08853135,0.0001583,53.2173,29.8933,83.5505,276.5667,0.00019991,2.896e-05,0.0,0 STARLINK-5271,1 54194U 22141AP  23274.59024893  .00002896  00000-0  19991-3 0  9998,2 54194  53.2173  29.8933 0001583  83.5505 276.5667 15.08853135 51625,6917.84,95.437,540.8,538.61,0.0
54194.0,STARLINK-5271,PAYLOAD,2023-10-01 17:20:43,15.0885863,0.0001618,53.2181,29.2952,98.5431,261.5744,0.00028261,4.215e-05,0.0,0 STARLINK-5271,1 54194U 22141AP  23274.72272371  .00004215  00000-0  28261-3 0  9996,2 54194  53.2181  29.2952 0001618  98.5431 261.5744 15.08858630 51649,6917.823,95.436,540.808,538.569,0.0
54194.0,STARLINK-5271,PAYLOAD,2023-10-02 01:17:39,15.08838682,0.0001607,53.2183,27.8124,92.7189,267.3987,-2.8333e-05,-7.39e-06,0.0,0 STARLINK-5271,1 54194U 22141AP  23275.05393364 -.00000739  00000-0 -28333-4 0  9999,2 54194  53.2183  27.8124 0001607  92.7189 267.3987 15.08838682 51929,6917.884,95.438,540.861,538.638,0.0
54194.0,STARLINK-5271,PAYLOAD,2023-10-02 14:00:45,15.08836511,0.0001702,53.219,25.4341,97.1177,263.0009,-0.0001239,-2.259e-05,0.0,0 STARLINK-5271,1 54194U 22141AP  23275.58385801 -.00002259  00000-0 -12390-3 0  9998,2 54194  53.2190  25.4341 0001702  97.1177 263.0009 15.08836511 51774,6917.891,95.438,540.933,538.579,0.0
54194.0,STARLINK-5271,PAYLOAD,2023-10-03 12:16:09,15.08840297,0.0001714,53.2198,21.2721,95.254,264.8648,0.00018042,2.585e-05,0.0,0 STARLINK-5271,1 54194U 22141AP  23276.51122016  .00002585  00000-0  18042-3 0  9999,2 54194  53.2198  21.2721 0001714  95.2540 264.8648 15.08840297 52140,6917.879,95.438,540.93,538.559,0.0
